NORAD_CAT_ID,OBJECT_NAME,OBJECT_TYPE,EPOCH,MEAN_MOTION,ECCENTRICITY,INCLINATION,RA_OF_ASC_NODE,ARG_OF_PERICENTER,MEAN_ANOMALY,BSTAR,MEAN_MOTION_DOT,MEAN_MOTION_DDOT,TLE_LINE0,TLE_LINE1,TLE_LINE2,SEMIMAJOR_AXIS,PERIOD,APOGEE,PERIGEE,DECAYED
52563.0,STARLINK-3942,PAYLOAD,2024-02-04 22:51:27,15.08842018,0.0001502,53.218,322.672,101.7699,258.3462,9.226e-06,-1.41e-06,0.0,0 STARLINK-3942,1 52563U 22051AG  24035.95240170 -.00000141  00000-0  92260-5 0  9994,2 52563  53.2180 322.6720 0001502 101.7699 258.3462 15.08842018 96074,6917.874,95.437,540.778,538.7,0.0
52563.0,STARLINK-3942,PAYLOAD,2024-02-05 11:34:32,15.0884051,0.0001488,53.2185,320.2957,105.1148,255.0009,8.0708e-05,9.97e-06,0.0,0 STARLINK-3942,1 52563U 22051AG  24036.48232148  .00000997  00000-0  80708-4 0  9990,2 52563  53.2185 320.2957 0001488 105.1148 255.0009 15.08840510 96150,6917.879,95.438,540.773,538.714,0.0
52563.0,STARLINK-3942,PAYLOAD,2024-02-05 22:42:14,15.0884302,0.0001346,53.2181,318.2141,98.8915,261.223,4.997e-05,5.08e-06,0.0,0 STARLINK-3942,1 52563U 22051AG  24036.94600137  .00000508  00000-0  49970-4 0  9992,2 52563  53.2181 318.2141 0001346  98.8915 261.2230 15.08843020 96223,6917.871,95.437,540.667,538.805,0.0
52563.0,STARLINK-3942,PAYLOAD,2024-02-06 03:28:23,15.08847235,0.00014,53.2193,317.3225,98.9753,261.1397,0.00016894,2.402e-05,0.0,0 STARLINK-3942,1 52563U 22051AG  24037.14471553  .00002402  00000-0  16894-3 0  9996,2 52563  53.2193 317.3225 0001400  98.9753 261.1397 15.08847235 96327,6917.858,95.437,540.692,538.755,0.0
52563.0,STARLINK-3942,PAYLOAD,2024-02-06 22:33:01,15.08839367,0.0001496,53.2183,313.7525,94.7029,265.4134,4.104e-05,3.65e-06,0.0,0 STARLINK-3942,1 52563U 22051AG  24037.93960461  .00000365  00000-0  41040-4 0  9992,2 52563  53.2183 313.7525 0001496  94.7029 265.4134 15.08839367 96372,6917.882,95.438,540.782,538.712,0.0
52563.0,STARLINK-3942,PAYLOAD,2024-02-07 03:19:10,15.08846753,0.0001483,53.2184,312.8588,85.0849,275.0313,8.2655e-05,1.028e-05,0.0,0 STARLINK-3942,1 52563U 22051AG  24038.13831921  .00001028  00000-0  82655-4 0  9997,2 52563  53.2184 312.8588 0001483  85.0849 275.0313 15.08846753 96475,6917.86,95.437,540.751,538.699,0.0
52563.0,STARLINK-3942,PAYLOAD,2024-02-07 11:16:07,15.08835152,0.0001466,53.218,311.374,96.5061,263.6098,4.3336e-06,-2.19e-06,0.0,0 STARLINK-3942,1 52563U 22051AG  24038.46952795 -.00000219  00000-0  43336-5 0  9992,2 52563  53.2180 311.3740 0001466  96.5061 263.6098 15.08835152 96529,6917.895,95.438,540.774,538.746,0.0
52563.0,STARLINK-3942,PAYLOAD,2024-02-07 22:23:49,15.08835579,0.000147,53.2174,309.2948,104.5817,255.5338,1.4841e-05,-5.2e-07,0.0,0 STARLINK-3942,1 52563U 22051AG  24038.93320947 -.00000052  00000-0  14841-4 0  9995,2 52563  53.2174 309.2948 0001470 104.5817 255.5338 15.08835579 96522,6917.894,95.438,540.776,538.742,0.0
52563.0,STARLINK-3942,PAYLOAD,2024-02-08 01:34:35,15.08842929,0.0001452,53.218,308.6964,97.1812,262.9345,-4.7481e-05,-1.044e-05,0.0,0 STARLINK-3942,1 52563U 22051AG  24039.06568600 -.00001044  00000-0 -47481-4 0  9999,2 52563  53.2180 308.6964 0001452  97.1812 262.9345 15.08842929 96541,6917.871,95.437,540.741,538.732,0.0
52563.0,STARLINK-3942,PAYLOAD,2024-02-08 22:14:34,15.08852518,0.0001447,53.2164,304.8319,135.4488,224.6621,0.00010916,1.45e-05,0.0,0 STARLINK-3942,1 52563U 22051AG  24039.92679292  .00001450  00000-0  10916-3 0  9995,2 52563  53.2164 304.8319 0001447 135.4488 224.6621 15.08852518 96675,6917.842,95.437,540.708,538.706,0.0
52563.0,STARLINK-3942,PAYLOAD,2024-02-08 23:49:56,15.0887203,0.000165,53.2175,304.5343,142.3417,217.769,0.00027987,4.173e-05,0.0,0 STARLINK-3942,1 52563U 22051AG  24039.99301680  .00004173  00000-0  27987-3 0  9996,2 52563  53.2175 304.5343 0001650 142.3417 217.7690 15.08872030 96755,6917.782,95.436,540.789,538.506,0.0
52563.0,STARLINK-3942,PAYLOAD,2024-02-10 02:51:32,15.08844043,0.000128,53.217,299.4772,96.7787,263.335,3.9859e-05,3.47e-06,0.0,0 STARLINK-3942,1 52563U 22051AG  24041.11912281  .00000347  00000-0  39859-4 0  9999,2 52563  53.2170 299.4772 0001280  96.7787 263.3350 15.08844043 96921,6917.868,95.437,540.619,538.848,0.0
52563.0,STARLINK-3942,PAYLOAD,2024-02-10 20:20:47,15.08810793,0.0001254,53.2175,296.204,101.4858,258.6275,0.00039775,6.043e-05,0.0,0 STARLINK-3942,1 52563U 22051AG  24041.84777197  .00006043  00000-0  39775-3 0  9999,2 52563  53.2175 296.2040 0001254 101.4858 258.6275 15.08810793 97034,6917.97,95.439,540.702,538.967,0.0
52563.0,STARLINK-3942,PAYLOAD,2024-02-10 21:56:10,15.08847052,0.0001586,53.2167,295.9068,66.4974,293.6184,-0.000101,-1.895e-05,0.0,0 STARLINK-3942,1 52563U 22051AG  24041.91400745 -.00001895  00000-0 -10100-3 0  9992,2 52563  53.2167 295.9068 0001586  66.4974 293.6184 15.08847052 96976,6917.859,95.437,540.821,538.627,0.0
52563.0,STARLINK-3942,PAYLOAD,2024-02-10 23:31:32,15.08852392,0.0001388,53.2178,295.6097,91.6723,268.4428,-0.00012235,-2.235e-05,0.0,0 STARLINK-3942,1 52563U 22051AG  24041.98024259 -.00002235  00000-0 -12235-3 0  9991,2 52563  53.2178 295.6097 0001388  91.6723 268.4428 15.08852392 97053,6917.843,95.437,540.668,538.747,0.0
52563.0,STARLINK-3942,PAYLOAD,2024-02-11 20:11:34,15.08836039,0.0001806,53.2175,291.7442,98.7221,261.3976,0.00011871,1.601e-05,0.0,0 STARLINK-3942,1 52563U 22051AG  24042.84136853  .00001601  00000-0  11871-3 0  9990,2 52563  53.2175 291.7442 0001806  98.7221 261.3976 15.08836039 97181,6917.892,95.438,541.007,538.508,0.0
52563.0,STARLINK-3942,PAYLOAD,2024-02-11 21:46:57,15.08835867,0.0001799,53.2175,291.4468,97.1005,263.0191,0.00011452,1.535e-05,0.0,0 STARLINK-3942,1 52563U 22051AG  24042.90760862  .00001535  00000-0  11452-3 0  9991,2 52563  53.2175 291.4468 0001799  97.1005 263.0191 15.08835867 97120,6917.893,95.438,541.003,538.513,0.0
52563.0,STARLINK-3942,PAYLOAD,2024-02-12 02:33:06,15.08839405,0.0001805,53.2176,290.5539,95.8178,264.302,0.00014508,2.022e-05,0.0,0 STARLINK-3942,1 52563U 22051AG  24043.10632637  .00002022  00000-0  14508-3 0  9999,2 52563  53.2176 290.5539 0001805  95.8178 264.3020 15.08839405 97154,6917.882,95.438,540.996,538.499,0.0
52563.0,STARLINK-3942,PAYLOAD,2024-02-12 20:02:21,15.08836773,0.0001616,53.2163,287.279,106.9356,253.1813,2.9562e-05,1.82e-06,0.0,0 STARLINK-3942,1 52563U 22051AG  24043.83497427  .00000182  00000-0  29562-4 0  9997,2 52563  53.2163 287.2790 0001616 106.9356 253.1813 15.08836773 97335,6917.89,95.438,540.873,538.637,0.0
52563.0,STARLINK-3942,PAYLOAD,2024-02-12 21:37:44,15.08835519,0.0001909,53.2171,286.9815,122.9928,237.1248,1.35e-05,-7.3e-07,0.0,0 STARLINK-3942,1 52563U 22051AG  24043.90121485 -.00000073  00000-0  13500-4 0  9998,2 52563  53.2171 286.9815 0001909 122.9928 237.1248 15.08835519 97270,6917.894,95.438,541.08,538.438,0.0
52563.0,STARLINK-3942,PAYLOAD,2024-02-13 23:03:55,15.08842711,0.0001616,53.217,282.2358,108.6017,251.5151,5.0241e-05,5.12e-06,0.0,0 STARLINK-3942,1 52563U 22051AG  24044.96105344  .00000512  00000-0  50241-4 0  9991,2 52563  53.2170 282.2358 0001616 108.6017 251.5151 15.08842711 97438,6917.872,95.437,540.855,538.619,0.0
52563.0,STARLINK-3942,PAYLOAD,2024-02-14 02:14:40,15.08853396,0.0001627,53.2148,281.639,109.7111,250.4057,-5.1597e-05,-1.109e-05,0.0,0 STARLINK-3942,1 52563U 22051AG  24045.09352770 -.00001109  00000-0 -51597-4 0  9993,2 52563  53.2148 281.6390 0001627 109.7111 250.4057 15.08853396 97525,6917.839,95.437,540.83,538.579,0.0
52563.0,STARLINK-3942,PAYLOAD,2024-02-14 08:36:13,15.08840022,0.0001546,53.2162,280.4453,92.3515,267.7654,5.9761e-05,6.63e-06,0.0,0 STARLINK-3942,1 52563U 22051AG  24045.35849414  .00000663  00000-0  59761-4 0  9991,2 52563  53.2162 280.4453 0001546  92.3515 267.7654 15.08840022 97563,6917.88,95.438,540.815,538.676,0.0
52563.0,STARLINK-3942,PAYLOAD,2024-02-14 21:19:19,15.08843646,0.0001463,53.2172,278.0665,88.6349,271.4811,0.00014036,1.947e-05,0.0,0 STARLINK-3942,1 52563U 22051AG  24045.88841449  .00001947  00000-0  14036-3 0  9990,2 52563  53.2172 278.0665 0001463  88.6349 271.4811 15.08843646 97576,6917.869,95.437,540.746,538.722,0.0
52563.0,STARLINK-3942,PAYLOAD,2024-02-15 08:27:01,15.08839852,0.0001398,53.2164,275.9845,84.7392,275.3759,5.4575e-05,5.81e-06,0.0,0 STARLINK-3942,1 52563U 22051AG  24046.35209546  .00000581  00000-0  54575-4 0  9995,2 52563  53.2164 275.9845 0001398  84.7392 275.3759 15.08839852 97641,6917.881,95.438,540.713,538.779,0.0
52563.0,STARLINK-3942,PAYLOAD,2024-02-15 19:34:43,15.08838937,0.0001793,53.2179,273.9034,87.7085,272.4113,8.3268e-05,1.037e-05,0.0,0 STARLINK-3942,1 52563U 22051AG  24046.81577853  .00001037  00000-0  83268-4 0  9993,2 52563  53.2179 273.9034 0001793  87.7085 272.4113 15.08838937 97786,6917.884,95.438,540.989,538.508,0.0
52563.0,STARLINK-3942,PAYLOAD,2024-02-15 22:45:29,15.08841103,0.000127,53.2148,273.3099,86.2242,273.8896,2.6762e-05,1.38e-06,0.0,0 STARLINK-3942,1 52563U 22051AG  24046.94825621  .00000138  00000-0  26762-4 0  9993,2 52563  53.2148 273.3099 0001270  86.2242 273.8896 15.08841103 97733,6917.877,95.437,540.621,538.863,0.0
52563.0,STARLINK-3942,PAYLOAD,2024-02-16 08:17:48,15.08839537,0.0001202,53.2135,271.5244,84.3973,275.7156,7.3385e-05,8.8e-06,0.0,0 STARLINK-3942,1 52563U 22051AG  24047.34569710  .00000880  00000-0  73385-4 0  9999,2 52563  53.2135 271.5244 0001202  84.3973 275.7156 15.08839537 97790,6917.882,95.438,540.578,538.915,0.0
52563.0,STARLINK-3942,PAYLOAD,2024-02-16 21:00:53,15.08845263,0.0001205,53.2142,269.1455,93.2301,266.8829,4.7848e-05,4.74e-06,0.0,0 STARLINK-3942,1 52563U 22051AG  24047.87561444  .00000474  00000-0  47848-4 0  9997,2 52563  53.2142 269.1455 0001205  93.2301 266.8829 15.08845263 97872,6917.864,95.437,540.563,538.896,0.0
52563.0,STARLINK-3942,PAYLOAD,2024-02-17 00:11:39,15.08847918,0.0001249,53.2145,268.5495,94.9967,265.1168,9.4813e-05,1.222e-05,0.0,0 STARLINK-3942,1 52563U 22051AG  24048.00809280  .00001222  00000-0  94813-4 0  9992,2 52563  53.2145 268.5495 0001249  94.9967 265.1168 15.08847918 97963,6917.856,95.437,540.585,538.857,0.0
